[{"OBJECT_NAME":"YAOGAN-30 04B","OBJECT_ID":"2017-085B","EPOCH":"2026-03-09T23:08:06.218304","MEAN_MOTION":15.02136468,"ECCENTRICITY":0.00051709,"INCLINATION":34.9961,"RA_OF_ASC_NODE":34.6701,"ARG_OF_PERICENTER":206.1156,"MEAN_ANOMALY":153.9292,"EPHEMERIS_TYPE":0,"CLASSIFICATION_TYPE":"U","NORAD_CAT_ID":43082,"ELEMENT_SET_NO":999,"REV_AT_EPOCH":44776,"BSTAR":0.0003202307,"MEAN_MOTION_DOT":4.272e-5,"MEAN_MOTION_DDOT":0},{"OBJECT_NAME":"STARLINK-5492","OBJECT_ID":"2023-013A","EPOCH":"2026-03-09T08:24:29.316384","MEAN_MOTION":15.0254349,"ECCENTRICITY":0.00012437,"INCLINATION":43.0035,"RA_OF_ASC_NODE":302.5875,"ARG_OF_PERICENTER":267.5983,"MEAN_ANOMALY":92.4717,"EPHEMERIS_TYPE":0,"CLASSIFICATION_TYPE":"U","NORAD_CAT_ID":55331,"ELEMENT_SET_NO":999,"REV_AT_EPOCH":17273,"BSTAR":-5.7176585e-5,"MEAN_MOTION_DOT":-9.76e-6,"MEAN_MOTION_DDOT":0}]
